NORAD_CAT_ID,OBJECT_NAME,OBJECT_TYPE,EPOCH,MEAN_MOTION,ECCENTRICITY,INCLINATION,RA_OF_ASC_NODE,ARG_OF_PERICENTER,MEAN_ANOMALY,BSTAR,MEAN_MOTION_DOT,MEAN_MOTION_DDOT,TLE_LINE0,TLE_LINE1,TLE_LINE2,SEMIMAJOR_AXIS,PERIOD,APOGEE,PERIGEE,DECAYED
52129.0,STARLINK-3661,PAYLOAD,2024-02-18 17:00:32,15.08860644,0.0001109,53.2169,195.9141,85.2288,274.883,-0.00021487,-3.708e-05,0.0,0 STARLINK-3661,1 52129U 22029AT  24049.70870682 -.00003708  00000-0 -21487-3 0  9996,2 52129  53.2169 195.9141 0001109  85.2288 274.8830 15.08860644107711,6917.817,95.436,540.449,538.915,0.0
52129.0,STARLINK-3661,PAYLOAD,2024-02-19 13:40:34,15.08822161,0.000115,53.217,192.0497,74.1049,286.007,0.00011476,1.538e-05,0.0,0 STARLINK-3661,1 52129U 22029AT  24050.56984299  .00001538  00000-0  11476-3 0  9996,2 52129  53.2170 192.0497 0001150  74.1049 286.0070 15.08822161107840,6917.935,95.439,540.595,539.004,0.0
52129.0,STARLINK-3661,PAYLOAD,2024-02-19 18:26:43,15.08823555,0.0001244,53.217,191.1586,69.4712,290.6414,0.00025871,3.83e-05,0.0,0 STARLINK-3661,1 52129U 22029AT  24050.76855762  .00003830  00000-0  25871-3 0  9991,2 52129  53.2170 191.1586 0001244  69.4712 290.6414 15.08823555107871,6917.931,95.439,540.656,538.935,0.0
52129.0,STARLINK-3661,PAYLOAD,2024-02-20 15:06:44,15.08840175,9.96e-05,53.2169,187.2929,81.8096,278.3009,5.545e-06,-1.99e-06,0.0,0 STARLINK-3661,1 52129U 22029AT  24051.62967942 -.00000199  00000-0  55450-5 0  9995,2 52129  53.2169 187.2929 0000996  81.8096 278.3009 15.08840175108008,6917.88,95.438,540.434,539.056,0.0
52129.0,STARLINK-3661,PAYLOAD,2024-02-20 18:17:30,15.08838587,9.99e-05,53.217,186.6973,76.79,283.3204,-2.5037e-05,-6.86e-06,0.0,0 STARLINK-3661,1 52129U 22029AT  24051.76216110 -.00000686  00000-0 -25037-4 0  9993,2 52129  53.2170 186.6973 0000999  76.7900 283.3204 15.08838587108021,6917.885,95.438,540.441,539.059,0.0
52129.0,STARLINK-3661,PAYLOAD,2024-02-21 14:57:31,15.08840788,0.0001056,53.2176,182.8308,80.6654,279.4458,2.3952e-05,9.3e-07,0.0,0 STARLINK-3661,1 52129U 22029AT  24052.62328047  .00000093  00000-0  23952-4 0  9996,2 52129  53.2176 182.8308 0001056  80.6654 279.4458 15.08840788108159,6917.878,95.438,540.474,539.012,0.0
52129.0,STARLINK-3661,PAYLOAD,2024-02-22 14:48:18,15.08841849,0.0001252,53.2162,178.3688,92.245,267.8685,4.4791e-05,4.25e-06,0.0,0 STARLINK-3661,1 52129U 22029AT  24053.61687797  .00000425  00000-0  44791-4 0  9999,2 52129  53.2162 178.3688 0001252  92.2450 267.8685 15.08841849108305,6917.875,95.437,540.606,538.874,0.0
52129.0,STARLINK-3661,PAYLOAD,2024-02-23 11:28:19,15.08834614,0.0001419,53.2169,174.5014,99.5427,260.5726,-4.6006e-05,-1.02e-05,0.0,0 STARLINK-3661,1 52129U 22029AT  24054.47800708 -.00001020  00000-0 -46006-4 0  9998,2 52129  53.2169 174.5014 0001419  99.5427 260.5726 15.08834614108434,6917.897,95.438,540.744,538.78,0.0
52129.0,STARLINK-3661,PAYLOAD,2024-02-23 14:39:05,15.08839721,0.0001275,53.2173,173.9093,91.6596,268.4542,-5.5021e-05,-1.163e-05,0.0,0 STARLINK-3661,1 52129U 22029AT  24054.61048522 -.00001163  00000-0 -55021-4 0  9997,2 52129  53.2173 173.9093 0001275  91.6596 268.4542 15.08839721108458,6917.881,95.438,540.628,538.864,0.0
52129.0,STARLINK-3661,PAYLOAD,2024-02-24 11:19:06,15.08839106,0.0001296,53.2174,170.0437,94.3358,265.7783,4.433e-05,4.18e-06,0.0,0 STARLINK-3661,1 52129U 22029AT  24055.47160362  .00000418  00000-0  44330-4 0  9990,2 52129  53.2174 170.0437 0001296  94.3358 265.7783 15.08839106108586,6917.883,95.438,540.645,538.852,0.0
52129.0,STARLINK-3661,PAYLOAD,2024-02-24 14:29:52,15.08844125,0.0001336,53.2174,169.4506,93.4635,266.651,7.5879e-05,9.2e-06,0.0,0 STARLINK-3661,1 52129U 22029AT  24055.60407979  .00000920  00000-0  75879-4 0  9993,2 52129  53.2174 169.4506 0001336  93.4635 266.6510 15.08844125108606,6917.868,95.437,540.657,538.809,0.0
52129.0,STARLINK-3661,PAYLOAD,2024-02-25 14:20:39,15.08846794,0.0001379,53.2175,164.9936,101.8474,258.2673,0.00011705,1.576e-05,0.0,0 STARLINK-3661,1 52129U 22029AT  24056.59767734  .00001576  00000-0  11705-3 0  9995,2 52129  53.2175 164.9936 0001379 101.8474 258.2673 15.08846794108753,6917.86,95.437,540.679,538.771,0.0
52129.0,STARLINK-3661,PAYLOAD,2024-02-25 23:52:58,15.08841246,0.0001286,53.2177,163.2062,89.7124,270.4015,7.1193e-05,8.45e-06,0.0,0 STARLINK-3661,1 52129U 22029AT  24056.99512115  .00000845  00000-0  71193-4 0  9996,2 52129  53.2177 163.2062 0001286  89.7124 270.4015 15.08841246108810,6917.877,95.437,540.631,538.852,0.0
52129.0,STARLINK-3661,PAYLOAD,2024-02-26 11:00:42,15.08824044,0.0001347,53.2174,161.1259,88.3034,271.8112,-0.00014142,-2.537e-05,0.0,0 STARLINK-3661,1 52129U 22029AT  24057.45882222 -.00002537  00000-0 -14142-3 0  9999,2 52129  53.2174 161.1259 0001347  88.3034 271.8112 15.08824044108882,6917.929,95.439,540.726,538.862,0.0
52129.0,STARLINK-3661,PAYLOAD,2024-02-26 14:11:28,15.08826261,0.0001536,53.2175,160.5312,86.9279,273.1889,-0.00012186,-2.226e-05,0.0,0 STARLINK-3661,1 52129U 22029AT  24057.59130161 -.00002226  00000-0 -12186-3 0  9993,2 52129  53.2175 160.5312 0001536  86.9279 273.1889 15.08826261108903,6917.922,95.438,540.85,538.725,0.0
52129.0,STARLINK-3661,PAYLOAD,2024-02-26 17:22:14,15.08831784,0.0001623,53.2181,159.9332,75.4587,284.6585,-8.7704e-05,-1.683e-05,0.0,0 STARLINK-3661,1 52129U 22029AT  24057.72377786 -.00001683  00000-0 -87704-4 0  9999,2 52129  53.2181 159.9332 0001623  75.4587 284.6585 15.08831784108924,6917.906,95.438,540.893,538.648,0.0
52129.0,STARLINK-3661,PAYLOAD,2024-02-27 10:51:28,15.0884474,0.0001198,53.2161,156.6642,94.7808,265.3321,-2.0191e-05,-6.09e-06,0.0,0 STARLINK-3661,1 52129U 22029AT  24058.45240810 -.00000609  00000-0 -20191-4 0  9991,2 52129  53.2161 156.6642 0001198  94.7808 265.3321 15.08844740109030,6917.866,95.437,540.56,538.902,0.0
52129.0,STARLINK-3661,PAYLOAD,2024-02-27 14:02:14,15.08847934,0.000153,53.2176,156.0691,86.778,273.3387,3.0469e-05,1.97e-06,0.0,0 STARLINK-3661,1 52129U 22029AT  24058.58488515  .00000197  00000-0  30469-4 0  9990,2 52129  53.2176 156.0691 0001530  86.7780 273.3387 15.08847934109055,6917.856,95.437,540.78,538.663,0.0
52129.0,STARLINK-3661,PAYLOAD,2024-02-28 12:17:38,15.08833832,0.0001688,53.2177,151.9069,74.145,285.9728,0.0001019,1.334e-05,0.0,0 STARLINK-3661,1 52129U 22029AT  24059.51225411  .00001334  00000-0  10190-3 0  9990,2 52129  53.2177 151.9069 0001688  74.1450 285.9728 15.08833832109193,6917.899,95.438,540.932,538.597,0.0
52129.0,STARLINK-3661,PAYLOAD,2024-02-28 13:53:01,15.08835445,0.0001458,53.2173,151.6092,84.7627,275.3532,8.7068e-05,1.098e-05,0.0,0 STARLINK-3661,1 52129U 22029AT  24059.57849275  .00001098  00000-0  87068-4 0  9992,2 52129  53.2173 151.6092 0001458  84.7627 275.3532 15.08835445109200,6917.894,95.438,540.768,538.751,0.0
52129.0,STARLINK-3661,PAYLOAD,2024-02-28 15:28:24,15.08839582,0.0001373,53.2174,151.3075,95.8435,264.2714,0.00010556,1.392e-05,0.0,0 STARLINK-3661,1 52129U 22029AT  24059.64472809  .00001392  00000-0  10556-3 0  9999,2 52129  53.2174 151.3075 0001373  95.8435 264.2714 15.08839582109211,6917.882,95.438,540.696,538.797,0.0
52129.0,STARLINK-3661,PAYLOAD,2024-02-29 12:08:25,15.08848116,0.0001376,53.2165,147.4452,82.0231,278.0918,-1.4672e-06,-3.11e-06,0.0,0 STARLINK-3661,1 52129U 22029AT  24060.50584658 -.00000311  00000-0 -14672-5 0  9999,2 52129  53.2165 147.4452 0001376  82.0231 278.0918 15.08848116109347,6917.856,95.437,540.672,538.769,0.0
52129.0,STARLINK-3661,PAYLOAD,2024-03-01 11:59:12,15.08842978,0.0001511,53.2173,142.9853,87.3707,272.7458,-1.579e-05,-5.39e-06,0.0,0 STARLINK-3661,1 52129U 22029AT  24061.49944859 -.00000539  00000-0 -15790-4 0  9994,2 52129  53.2173 142.9853 0001511  87.3707 272.7458 15.08842978109494,6917.871,95.437,540.782,538.691,0.0
52129.0,STARLINK-3661,PAYLOAD,2024-03-01 15:09:58,15.08844743,0.0001633,53.2179,142.3861,92.9807,267.1372,5.4891e-06,-2.01e-06,0.0,0 STARLINK-3661,1 52129U 22029AT  24061.63192568 -.00000201  00000-0  54891-5 0  9993,2 52129  53.2179 142.3861 0001633  92.9807 267.1372 15.08844743109519,6917.866,95.437,540.861,538.601,0.0
52129.0,STARLINK-3661,PAYLOAD,2024-03-02 11:49:58,15.08847814,0.0001813,53.2176,138.5203,116.421,243.6969,-5.8545e-06,-3.81e-06,0.0,0 STARLINK-3661,1 52129U 22029AT  24062.49304156 -.00000381  00000-0 -58545-5 0  9996,2 52129  53.2176 138.5203 0001813 116.4210 243.6969 15.08847814109640,6917.857,95.437,540.976,538.467,0.0
52129.0,STARLINK-3661,PAYLOAD,2024-03-03 03:43:50,15.08835757,0.0001622,53.2174,135.5476,103.5584,256.5588,3.1834e-05,2.19e-06,0.0,0 STARLINK-3661,1 52129U 22029AT  24063.15544773  .00000219  00000-0  31834-4 0  9990,2 52129  53.2174 135.5476 0001622 103.5584 256.5588 15.08835757109740,6917.893,95.438,540.88,538.636,0.0
52129.0,STARLINK-3661,PAYLOAD,2024-03-03 11:40:47,15.08828909,0.000144,53.2174,134.0589,95.7824,264.3332,-5.0883e-05,-1.097e-05,0.0,0 STARLINK-3661,1 52129U 22029AT  24063.48665714 -.00001097  00000-0 -50883-4 0  9997,2 52129  53.2174 134.0589 0001440  95.7824 264.3332 15.08828909109796,6917.914,95.438,540.775,538.783,0.0
52129.0,STARLINK-3661,PAYLOAD,2024-03-04 11:31:32,15.08853346,0.0001865,53.2171,129.6083,107.1142,253.0054,0.00011788,1.589e-05,0.0,0 STARLINK-3661,1 52129U 22029AT  24064.48023868  .00001589  00000-0  11788-3 0  9990,2 52129  53.2171 129.6083 0001865 107.1142 253.0054 15.08853346109940,6917.84,95.437,540.995,538.414,0.0
52129.0,STARLINK-3661,PAYLOAD,2024-03-04 21:03:50,15.08853661,0.0001516,53.2174,127.8182,99.0296,261.0867,0.0001572,2.216e-05,0.0,0 STARLINK-3661,1 52129U 22029AT  24064.87767313  .00002216  00000-0  15720-3 0  9991,2 52129  53.2174 127.8182 0001516  99.0296 261.0867 15.08853661110005,6917.839,95.437,540.752,538.655,0.0
52129.0,STARLINK-3661,PAYLOAD,2024-03-05 03:25:27,15.08800796,0.0001528,53.2167,126.6289,101.0812,259.0352,-0.00010659,-1.982e-05,0.0,0 STARLINK-3661,1 52129U 22029AT  24065.14267508 -.00001982  00000-0 -10659-3 0  9990,2 52129  53.2167 126.6289 0001528 101.0812 259.0352 15.08800796110044,6918.0,95.44,540.922,538.808,0.0
